{"fetched_at":"2026-07-22T07:09:22.096Z","source":"https://celestrak.org/NORAD/elements/gp.php?GROUP=oneweb&FORMAT=JSON","constellation":"oneweb","records":[{"OBJECT_NAME":"ONEWEB-0101","OBJECT_ID":"2021-025H","EPOCH":"2026-07-21T08:20:05.252928","CLASSIFICATION_TYPE":"U","MEAN_MOTION":13.13472045,"ECCENTRICITY":0.00021121,"INCLINATION":87.8978,"RA_OF_ASC_NODE":313.4285,"ARG_OF_PERICENTER":101.6996,"MEAN_ANOMALY":258.4371,"EPHEMERIS_TYPE":0,"NORAD_CAT_ID":48049,"ELEMENT_SET_NO":999,"REV_AT_EPOCH":25798,"BSTAR":-0.0004228037,"MEAN_MOTION_DOT":-0.00000142,"MEAN_MOTION_DDOT":0},{"OBJECT_NAME":"ONEWEB-0113","OBJECT_ID":"2021-025J","EPOCH":"2026-07-21T14:08:21.516288","CLASSIFICATION_TYPE":"U","MEAN_MOTION":13.13891119,"ECCENTRICITY":0.00018461,"INCLINATION":87.8982,"RA_OF_ASC_NODE":313.2872,"ARG_OF_PERICENTER":96.3416,"MEAN_ANOMALY":263.7924,"EPHEMERIS_TYPE":0,"NORAD_CAT_ID":48050,"ELEMENT_SET_NO":999,"REV_AT_EPOCH":25812,"BSTAR":0.000049690731,"MEAN_MOTION_DOT":3.1e-7,"MEAN_MOTION_DDOT":0},{"OBJECT_NAME":"ONEWEB-0112","OBJECT_ID":"2021-025K","EPOCH":"2026-07-21T13:00:26.282304","CLASSIFICATION_TYPE":"U","MEAN_MOTION":13.13470222,"ECCENTRICITY":0.00022111,"INCLINATION":87.8991,"RA_OF_ASC_NODE":313.3758,"ARG_OF_PERICENTER":100.4461,"MEAN_ANOMALY":259.6917,"EPHEMERIS_TYPE":0,"NORAD_CAT_ID":48051,"ELEMENT_SET_NO":999,"REV_AT_EPOCH":25810,"BSTAR":0.00071365184,"MEAN_MOTION_DOT":0.00000273,"MEAN_MOTION_DDOT":0},{"OBJECT_NAME":"ONEWEB-0156","OBJECT_ID":"2021-025L","EPOCH":"2026-07-21T13:12:35.988192","CLASSIFICATION_TYPE":"U","MEAN_MOTION":13.13470069,"ECCENTRICITY":0.00019635,"INCLINATION":87.8989,"RA_OF_ASC_NODE":313.3838,"ARG_OF_PERICENTER":96.1185,"MEAN_ANOMALY":264.0168,"EPHEMERIS_TYPE":0,"NORAD_CAT_ID":48052,"ELEMENT_SET_NO":999,"REV_AT_EPOCH":25808,"BSTAR":-0.00069604429,"MEAN_MOTION_DOT":-0.00000241,"MEAN_MOTION_DDOT":0},{"OBJECT_NAME":"ONEWEB-0161","OBJECT_ID":"2021-025M","EPOCH":"2026-07-21T07:06:57.396096","CLASSIFICATION_TYPE":"U","MEAN_MOTION":13.13473849,"ECCENTRICITY":0.00020512,"INCLINATION":87.8987,"RA_OF_ASC_NODE":313.4352,"ARG_OF_PERICENTER":94.5746,"MEAN_ANOMALY":265.5617,"EPHEMERIS_TYPE":0,"NORAD_CAT_ID":48053,"ELEMENT_SET_NO":999,"REV_AT_EPOCH":25798,"BSTAR":0.0011537251,"MEAN_MOTION_DOT":0.00000434,"MEAN_MOTION_DDOT":0},{"OBJECT_NAME":"ONEWEB-0158","OBJECT_ID":"2021-025N","EPOCH":"2026-07-21T07:58:09.609024","CLASSIFICATION_TYPE":"U","MEAN_MOTION":13.13471738,"ECCENTRICITY":0.00019032,"INCLINATION":87.8988,"RA_OF_ASC_NODE":313.4254,"ARG_OF_PERICENTER":109.3245,"MEAN_ANOMALY":250.809,"EPHEMERIS_TYPE":0,"NORAD_CAT_ID":48054,"ELEMENT_SET_NO":999,"REV_AT_EPOCH":25811,"BSTAR":-0.00067379246,"MEAN_MOTION_DOT":-0.00000233,"MEAN_MOTION_DDOT":0},{"OBJECT_NAME":"ONEWEB-0157","OBJECT_ID":"2021-025P","EPOCH":"2026-07-21T08:34:42.586176","CLASSIFICATION_TYPE":"U","MEAN_MOTION":13.1347225,"ECCENTRICITY":0.00022765,"INCLINATION":87.8985,"RA_OF_ASC_NODE":313.4254,"ARG_OF_PERICENTER":94.2419,"MEAN_ANOMALY":265.8971,"EPHEMERIS_TYPE":0,"NORAD_CAT_ID":48055,"ELEMENT_SET_NO":999,"REV_AT_EPOCH":25805,"BSTAR":0.00023535744,"MEAN_MOTION_DOT":9.9e-7,"MEAN_MOTION_DDOT":0},{"OBJECT_NAME":"ONEWEB-0162","OBJECT_ID":"2021-025Q","EPOCH":"2026-07-21T08:00:24.513984","CLASSIFICATION_TYPE":"U","MEAN_MOTION":13.13469683,"ECCENTRICITY":0.00018638,"INCLINATION":87.8985,"RA_OF_ASC_NODE":313.4302,"ARG_OF_PERICENTER":95.9748,"MEAN_ANOMALY":264.1593,"EPHEMERIS_TYPE":0,"NORAD_CAT_ID":48056,"ELEMENT_SET_NO":999,"REV_AT_EPOCH":25802,"BSTAR":-0.00061513218,"MEAN_MOTION_DOT":-0.00000212,"MEAN_MOTION_DDOT":0},{"OBJECT_NAME":"ONEWEB-0155","OBJECT_ID":"2021-025R","EPOCH":"2026-07-21T13:39:24.579072","CLASSIFICATION_TYPE":"U","MEAN_MOTION":13.13470306,"ECCENTRICITY":0.00019892,"INCLINATION":87.8987,"RA_OF_ASC_NODE":313.3801,"ARG_OF_PERICENTER":96.9044,"MEAN_ANOMALY":263.2312,"EPHEMERIS_TYPE":0,"NORAD_CAT_ID":48057,"ELEMENT_SET_NO":999,"REV_AT_EPOCH":25819,"BSTAR":-0.0011873169,"MEAN_MOTION_DOT":-0.00000421,"MEAN_MOTION_DDOT":0},{"OBJECT_NAME":"ONEWEB-0149","OBJECT_ID":"2021-025S","EPOCH":"2026-07-21T14:11:07.925280","CLASSIFICATION_TYPE":"U","MEAN_MOTION":13.13471057,"ECCENTRICITY":0.00018278,"INCLINATION":87.8986,"RA_OF_ASC_NODE":313.38,"ARG_OF_PERICENTER":94.6483,"MEAN_ANOMALY":265.4855,"EPHEMERIS_TYPE":0,"NORAD_CAT_ID":48058,"ELEMENT_SET_NO":999,"REV_AT_EPOCH":25800,"BSTAR":0.00055005501,"MEAN_MOTION_DOT":0.00000214,"MEAN_MOTION_DDOT":0},{"OBJECT_NAME":"ONEWEB-0148","OBJECT_ID":"2021-025T","EPOCH":"2026-07-21T15:07:11.675136","CLASSIFICATION_TYPE":"U","MEAN_MOTION":13.13469162,"ECCENTRICITY":0.00017984,"INCLINATION":87.8983,"RA_OF_ASC_NODE":313.377,"ARG_OF_PERICENTER":82.678,"MEAN_ANOMALY":277.4553,"EPHEMERIS_TYPE":0,"NORAD_CAT_ID":48059,"ELEMENT_SET_NO":999,"REV_AT_EPOCH":25813,"BSTAR":-0.00026310624,"MEAN_MOTION_DOT":-8.3e-7,"MEAN_MOTION_DDOT":0},{"OBJECT_NAME":"ONEWEB-0160","OBJECT_ID":"2021-025U","EPOCH":"2026-07-21T08:12:46.647648","CLASSIFICATION_TYPE":"U","MEAN_MOTION":13.13470575,"ECCENTRICITY":0.00015974,"INCLINATION":87.8979,"RA_OF_ASC_NODE":313.4302,"ARG_OF_PERICENTER":121.402,"MEAN_ANOMALY":238.7265,"EPHEMERIS_TYPE":0,"NORAD_CAT_ID":48060,"ELEMENT_SET_NO":999,"REV_AT_EPOCH":25804,"BSTAR":-0.00074008146,"MEAN_MOTION_DOT":-0.00000258,"MEAN_MOTION_DDOT":0},{"OBJECT_NAME":"ONEWEB-0163","OBJECT_ID":"2021-025V","EPOCH":"2026-07-21T13:19:56.174592","CLASSIFICATION_TYPE":"U","MEAN_MOTION":13.13469498,"ECCENTRICITY":0.00022132,"INCLINATION":87.899,"RA_OF_ASC_NODE":313.3848,"ARG_OF_PERICENTER":95.6868,"MEAN_ANOMALY":264.4514,"EPHEMERIS_TYPE":0,"NORAD_CAT_ID":48061,"ELEMENT_SET_NO":999,"REV_AT_EPOCH":25819,"BSTAR":-0.00034636415,"MEAN_MOTION_DOT":-0.00000114,"MEAN_MOTION_DDOT":0},{"OBJECT_NAME":"ONEWEB-0159","OBJECT_ID":"2021-025W","EPOCH":"2026-07-21T13:07:44.799456","CLASSIFICATION_TYPE":"U","MEAN_MOTION":13.13469778,"ECCENTRICITY":0.00021807,"INCLINATION":87.8991,"RA_OF_ASC_NODE":313.3805,"ARG_OF_PERICENTER":96.8376,"MEAN_ANOMALY":263.3001,"EPHEMERIS_TYPE":0,"NORAD_CAT_ID":48062,"ELEMENT_SET_NO":999,"REV_AT_EPOCH":25811,"BSTAR":0.00022405983,"MEAN_MOTION_DOT":9.5e-7,"MEAN_MOTION_DDOT":0},{"OBJECT_NAME":"ONEWEB-0164","OBJECT_ID":"2021-025X","EPOCH":"2026-07-21T14:30:37.910016","CLASSIFICATION_TYPE":"U","MEAN_MOTION":13.13469583,"ECCENTRICITY":0.000191,"INCLINATION":87.899,"RA_OF_ASC_NODE":313.3754,"ARG_OF_PERICENTER":101.7987,"MEAN_ANOMALY":258.3356,"EPHEMERIS_TYPE":0,"NORAD_CAT_ID":48063,"ELEMENT_SET_NO":999,"REV_AT_EPOCH":25810,"BSTAR":0.00067340082,"MEAN_MOTION_DOT":0.00000259,"MEAN_MOTION_DDOT":0},{"OBJECT_NAME":"ONEWEB-0167","OBJECT_ID":"2021-025Y","EPOCH":"2026-07-21T07:52:04.420416","CLASSIFICATION_TYPE":"U","MEAN_MOTION":13.13470122,"ECCENTRICITY":0.0002601,"INCLINATION":87.8981,"RA_OF_ASC_NODE":313.4367,"ARG_OF_PERICENTER":103.5939,"MEAN_ANOMALY":256.548,"EPHEMERIS_TYPE":0,"NORAD_CAT_ID":48064,"ELEMENT_SET_NO":999,"REV_AT_EPOCH":25805,"BSTAR":-0.00050505164,"MEAN_MOTION_DOT":-0.00000172,"MEAN_MOTION_DDOT":0},{"OBJECT_NAME":"ONEWEB-0166","OBJECT_ID":"2021-025Z","EPOCH":"2026-07-21T13:54:03.790656","CLASSIFICATION_TYPE":"U","MEAN_MOTION":13.1347057,"ECCENTRICITY":0.00019328,"INCLINATION":87.899,"RA_OF_ASC_NODE":313.362,"ARG_OF_PERICENTER":97.895,"MEAN_ANOMALY":262.2398,"EPHEMERIS_TYPE":0,"NORAD_CAT_ID":48065,"ELEMENT_SET_NO":999,"REV_AT_EPOCH":25816,"BSTAR":-0.0004777439,"MEAN_MOTION_DOT":-0.00000162,"MEAN_MOTION_DDOT":0},{"OBJECT_NAME":"ONEWEB-0151","OBJECT_ID":"2021-025AA","EPOCH":"2026-07-21T08:27:24.087168","CLASSIFICATION_TYPE":"U","MEAN_MOTION":13.13471042,"ECCENTRICITY":0.00020811,"INCLINATION":87.8989,"RA_OF_ASC_NODE":313.4218,"ARG_OF_PERICENTER":102.3198,"MEAN_ANOMALY":257.8164,"EPHEMERIS_TYPE":0,"NORAD_CAT_ID":48066,"ELEMENT_SET_NO":999,"REV_AT_EPOCH":25807,"BSTAR":-0.00010858936,"MEAN_MOTION_DOT":-2.7e-7,"MEAN_MOTION_DDOT":0},{"OBJECT_NAME":"ONEWEB-0170","OBJECT_ID":"2021-025AB","EPOCH":"2026-07-21T08:39:35.792352","CLASSIFICATION_TYPE":"U","MEAN_MOTION":13.13470303,"ECCENTRICITY":0.00020238,"INCLINATION":87.8989,"RA_OF_ASC_NODE":313.4221,"ARG_OF_PERICENTER":115.5142,"MEAN_ANOMALY":244.6196,"EPHEMERIS_TYPE":0,"NORAD_CAT_ID":48067,"ELEMENT_SET_NO":999,"REV_AT_EPOCH":25803,"BSTAR":0.00053604383,"MEAN_MOTION_DOT":0.00000209,"MEAN_MOTION_DDOT":0},{"OBJECT_NAME":"ONEWEB-0168","OBJECT_ID":"2021-025AC","EPOCH":"2026-07-21T06:27:57.760992","CLASSIFICATION_TYPE":"U","MEAN_MOTION":13.13469919,"ECCENTRICITY":0.00020273,"INCLINATION":87.8988,"RA_OF_ASC_NODE":313.4417,"ARG_OF_PERICENTER":100.323,"MEAN_ANOMALY":259.8128,"EPHEMERIS_TYPE":0,"NORAD_CAT_ID":48068,"ELEMENT_SET_NO":999,"REV_AT_EPOCH":25803,"BSTAR":-0.00055027066,"MEAN_MOTION_DOT":-0.00000188,"MEAN_MOTION_DDOT":0},{"OBJECT_NAME":"ONEWEB-0173","OBJECT_ID":"2021-025AD","EPOCH":"2026-07-21T08:05:28.185792","CLASSIFICATION_TYPE":"U","MEAN_MOTION":13.13470217,"ECCENTRICITY":0.00023345,"INCLINATION":87.8983,"RA_OF_ASC_NODE":313.4278,"ARG_OF_PERICENTER":97.5246,"MEAN_ANOMALY":262.6148,"EPHEMERIS_TYPE":0,"NORAD_CAT_ID":48069,"ELEMENT_SET_NO":999,"REV_AT_EPOCH":25828,"BSTAR":-0.0006938835,"MEAN_MOTION_DOT":-0.00000241,"MEAN_MOTION_DDOT":0},{"OBJECT_NAME":"ONEWEB-0171","OBJECT_ID":"2021-025AE","EPOCH":"2026-07-21T07:09:24.568992","CLASSIFICATION_TYPE":"U","MEAN_MOTION":13.13469807,"ECCENTRICITY":0.00020016,"INCLINATION":87.898,"RA_OF_ASC_NODE":313.4426,"ARG_OF_PERICENTER":102.2456,"MEAN_ANOMALY":257.8897,"EPHEMERIS_TYPE":0,"NORAD_CAT_ID":48070,"ELEMENT_SET_NO":999,"REV_AT_EPOCH":25809,"BSTAR":0.0010582027,"MEAN_MOTION_DOT":0.00000399,"MEAN_MOTION_DDOT":0},{"OBJECT_NAME":"ONEWEB-0172","OBJECT_ID":"2021-025AF","EPOCH":"2026-07-21T13:58:55.247232","CLASSIFICATION_TYPE":"U","MEAN_MOTION":13.13471734,"ECCENTRICITY":0.00021439,"INCLINATION":87.8991,"RA_OF_ASC_NODE":313.3789,"ARG_OF_PERICENTER":100.6344,"MEAN_ANOMALY":259.5027,"EPHEMERIS_TYPE":0,"NORAD_CAT_ID":48071,"ELEMENT_SET_NO":999,"REV_AT_EPOCH":25902,"BSTAR":-0.000025601603,"MEAN_MOTION_DOT":3e-8,"MEAN_MOTION_DDOT":0}]}
